[{"OBJECT_NAME":"OBJECT H","OBJECT_ID":"2024-205H","EPOCH":"2026-03-09T23:10:36.271776","MEAN_MOTION":15.29110994,"ECCENTRICITY":0.00105089,"INCLINATION":97.4168,"RA_OF_ASC_NODE":147.1265,"ARG_OF_PERICENTER":38.7838,"MEAN_ANOMALY":321.4154,"EPHEMERIS_TYPE":0,"CLASSIFICATION_TYPE":"U","NORAD_CAT_ID":61901,"ELEMENT_SET_NO":999,"REV_AT_EPOCH":7354,"BSTAR":0.00059497566,"MEAN_MOTION_DOT":0.00016783,"MEAN_MOTION_DDOT":0},{"OBJECT_NAME":"STARLINK-35183","OBJECT_ID":"2025-210AA","EPOCH":"2026-03-09T22:09:23.848416","MEAN_MOTION":15.30217673,"ECCENTRICITY":9.528e-5,"INCLINATION":53.1606,"RA_OF_ASC_NODE":306.2156,"ARG_OF_PERICENTER":150.2781,"MEAN_ANOMALY":209.8274,"EPHEMERIS_TYPE":0,"CLASSIFICATION_TYPE":"U","NORAD_CAT_ID":65646,"ELEMENT_SET_NO":999,"REV_AT_EPOCH":2776,"BSTAR":0.0010638811,"MEAN_MOTION_DOT":0.000313,"MEAN_MOTION_DDOT":0}]
